[
    {
        "Altitude(m)": 706789.0262412273,
        "Argument of Periapsis(deg)": 0.007973084830638947,
        "Eccentricity": 0.0,
        "Inclination(deg)": 45.0,
        "Latitude(deg)": 42.84540250029556,
        "Longitude(deg)": -93.23763268608097,
        "Mean Anomaly(deg)": -286.4722483467634,
        "RAAN(deg)": 299.99247364097926,
        "Satellite Name": "Constellation 1 1324",
        "Satellite Number": 1324,
        "Semi-Major Axis(m)": 7083131.272910544,
        "Time(s)": 133
    },
    {
        "Altitude(m)": 706792.7154927953,
        "Argument of Periapsis(deg)": 0.008033032836884352,
        "Eccentricity": 0.0,
        "Inclination(deg)": 45.0,
        "Latitude(deg)": 42.861983270877666,
        "Longitude(deg)": -93.16223352304253,
        "Mean Anomaly(deg)": -286.41154720651355,
        "RAAN(deg)": 299.99241705181373,
        "Satellite Name": "Constellation 1 1324",
        "Satellite Number": 1324,
        "Semi-Major Axis(m)": 7083131.272910544,
        "Time(s)": 134
    },
    {
        "Altitude(m)": 706796.3931377378,
        "Argument of Periapsis(deg)": 0.008092980843129758,
        "Eccentricity": 0.0,
        "Inclination(deg)": 45.0,
        "Latitude(deg)": 42.87850877351441,
        "Longitude(deg)": -93.0867918988645,
        "Mean Anomaly(deg)": -286.35084606626367,
        "RAAN(deg)": 299.99236046264815,
        "Satellite Name": "Constellation 1 1324",
        "Satellite Number": 1324,
        "Semi-Major Axis(m)": 7083131.272910544,
        "Time(s)": 135
    },
    {
        "Altitude(m)": 706800.0591542776,
        "Argument of Periapsis(deg)": 0.008152928849375162,
        "Eccentricity": 0.0,
        "Inclination(deg)": 45.0,
        "Latitude(deg)": 42.89497894735899,
        "Longitude(deg)": -93.01130790823973,
        "Mean Anomaly(deg)": -286.29014492601374,
        "RAAN(deg)": 299.9923038734825,
        "Satellite Name": "Constellation 1 1324",
        "Satellite Number": 1324,
        "Semi-Major Axis(m)": 7083131.272910544,
        "Time(s)": 136
    },
    {
        "Altitude(m)": 706803.7135206976,
        "Argument of Periapsis(deg)": 0.008212876855620568,
        "Eccentricity": 0.0,
        "Inclination(deg)": 45.0,
        "Latitude(deg)": 42.911393731685585,
        "Longitude(deg)": -92.93578164642629,
        "Mean Anomaly(deg)": -286.2294437857638,
        "RAAN(deg)": 299.992247284317,
        "Satellite Name": "Constellation 1 1324",
        "Satellite Number": 1324,
        "Semi-Major Axis(m)": 7083131.272910544,
        "Time(s)": 137
    },
    {
        "Altitude(m)": 706807.3562153581,
        "Argument of Periapsis(deg)": 0.008272824861865974,
        "Eccentricity": 0.0,
        "Inclination(deg)": 45.0,
        "Latitude(deg)": 42.92775306589036,
        "Longitude(deg)": -92.86021320924846,
        "Mean Anomaly(deg)": -286.168742645514,
        "RAAN(deg)": 299.9921906951514,
        "Satellite Name": "Constellation 1 1324",
        "Satellite Number": 1324,
        "Semi-Major Axis(m)": 7083131.272910544,
        "Time(s)": 138
    },
    {
        "Altitude(m)": 706810.9872166935,
        "Argument of Periapsis(deg)": 0.00833277286811138,
        "Eccentricity": 0.0,
        "Inclination(deg)": 45.0,
        "Latitude(deg)": 42.944056889492316,
        "Longitude(deg)": -92.78460269309558,
        "Mean Anomaly(deg)": -286.108041505264,
        "RAAN(deg)": 299.9921341059859,
        "Satellite Name": "Constellation 1 1324",
        "Satellite Number": 1324,
        "Semi-Major Axis(m)": 7083131.272910544,
        "Time(s)": 139
    },
    {
        "Altitude(m)": 706814.6065032084,
        "Argument of Periapsis(deg)": 0.008392720874356788,
        "Eccentricity": 0.0,
        "Inclination(deg)": 45.0,
        "Latitude(deg)": 42.960305142134246,
        "Longitude(deg)": -92.70895019492296,
        "Mean Anomaly(deg)": -286.0473403650141,
        "RAAN(deg)": 299.9920775168203,
        "Satellite Name": "Constellation 1 1324",
        "Satellite Number": 1324,
        "Semi-Major Axis(m)": 7083131.272910544,
        "Time(s)": 140
    },
    {
        "Altitude(m)": 706818.2140534807,
        "Argument of Periapsis(deg)": 0.008452668880602192,
        "Eccentricity": 0.0,
        "Inclination(deg)": 45.0,
        "Latitude(deg)": 42.976497763583694,
        "Longitude(deg)": -92.63325598034764,
        "Mean Anomaly(deg)": -285.98663922476425,
        "RAAN(deg)": 299.9920209276547,
        "Satellite Name": "Constellation 1 1324",
        "Satellite Number": 1324,
        "Semi-Major Axis(m)": 7083131.272910544,
        "Time(s)": 141
    },
    {
        "Altitude(m)": 706821.8098461553,
        "Argument of Periapsis(deg)": 0.008512616886847598,
        "Eccentricity": 0.0,
        "Inclination(deg)": 45.0,
        "Latitude(deg)": 42.99263469373366,
        "Longitude(deg)": -92.55751981126204,
        "Mean Anomaly(deg)": -285.92593808451437,
        "RAAN(deg)": 299.99196433848914,
        "Satellite Name": "Constellation 1 1324",
        "Satellite Number": 1324,
        "Semi-Major Axis(m)": 7083131.272910544,
        "Time(s)": 142
    },
    {
        "Altitude(m)": 706825.3938599519,
        "Argument of Periapsis(deg)": 0.008572564893093004,
        "Eccentricity": 0.0,
        "Inclination(deg)": 45.0,
        "Latitude(deg)": 43.00871587260387,
        "Longitude(deg)": -92.48174195441369,
        "Mean Anomaly(deg)": -285.86523694426444,
        "RAAN(deg)": 299.99190774932356,
        "Satellite Name": "Constellation 1 1324",
        "Satellite Number": 1324,
        "Semi-Major Axis(m)": 7083131.272910544,
        "Time(s)": 143
    },
    {
        "Altitude(m)": 706828.9660736617,
        "Argument of Periapsis(deg)": 0.008632512899338408,
        "Eccentricity": 0.0,
        "Inclination(deg)": 45.0,
        "Latitude(deg)": 43.02474124034132,
        "Longitude(deg)": -92.405922509019,
        "Mean Anomaly(deg)": -285.80453580401456,
        "RAAN(deg)": 299.99185116015803,
        "Satellite Name": "Constellation 1 1324",
        "Satellite Number": 1324,
        "Semi-Major Axis(m)": 7083131.272910544,
        "Time(s)": 144
    },
    {
        "Altitude(m)": 706832.5264661561,
        "Argument of Periapsis(deg)": 0.008692460905583814,
        "Eccentricity": 0.0,
        "Inclination(deg)": 45.0,
        "Latitude(deg)": 43.0407107372214,
        "Longitude(deg)": -92.33006157485893,
        "Mean Anomaly(deg)": -285.74383466376463,
        "RAAN(deg)": 299.99179457099245,
        "Satellite Name": "Constellation 1 1324",
        "Satellite Number": 1324,
        "Semi-Major Axis(m)": 7083131.272910544,
        "Time(s)": 145
    },
    {
        "Altitude(m)": 706836.0750163654,
        "Argument of Periapsis(deg)": 0.00875240891182922,
        "Eccentricity": 0.0,
        "Inclination(deg)": 45.0,
        "Latitude(deg)": 43.056624303648846,
        "Longitude(deg)": -92.25415925227936,
        "Mean Anomaly(deg)": -285.6831335235147,
        "RAAN(deg)": 299.9917379818269,
        "Satellite Name": "Constellation 1 1324",
        "Satellite Number": 1324,
        "Semi-Major Axis(m)": 7083131.272910544,
        "Time(s)": 146
    },
    {
        "Altitude(m)": 706839.611703302,
        "Argument of Periapsis(deg)": 0.008812356918074627,
        "Eccentricity": 0.0,
        "Inclination(deg)": 45.0,
        "Latitude(deg)": 43.07248188015842,
        "Longitude(deg)": -92.17821564219123,
        "Mean Anomaly(deg)": -285.6224323832648,
        "RAAN(deg)": 299.9916813926613,
        "Satellite Name": "Constellation 1 1324",
        "Satellite Number": 1324,
        "Semi-Major Axis(m)": 7083131.272910544,
        "Time(s)": 147
    },
    {
        "Altitude(m)": 706843.1365060502,
        "Argument of Periapsis(deg)": 0.008872304924320031,
        "Eccentricity": 0.0,
        "Inclination(deg)": 45.0,
        "Latitude(deg)": 43.088283407416164,
        "Longitude(deg)": -92.10223101416604,
        "Mean Anomaly(deg)": -285.56173124301495,
        "RAAN(deg)": 299.9916248034957,
        "Satellite Name": "Constellation 1 1324",
        "Satellite Number": 1324,
        "Semi-Major Axis(m)": 7083131.272910544,
        "Time(s)": 148
    },
    {
        "Altitude(m)": 706846.6494037602,
        "Argument of Periapsis(deg)": 0.008932252930565437,
        "Eccentricity": 0.0,
        "Inclination(deg)": 45.0,
        "Latitude(deg)": 43.10402882621992,
        "Longitude(deg)": -92.02620513404953,
        "Mean Anomaly(deg)": -285.501030102765,
        "RAAN(deg)": 299.99156821433013,
        "Satellite Name": "Constellation 1 1324",
        "Satellite Number": 1324,
        "Semi-Major Axis(m)": 7083131.272910544,
        "Time(s)": 149
    },
    {
        "Altitude(m)": 706850.1503756637,
        "Argument of Periapsis(deg)": 0.008992200936810843,
        "Eccentricity": 0.0,
        "Inclination(deg)": 45.0,
        "Latitude(deg)": 43.11971807750063,
        "Longitude(deg)": -91.95013827254196,
        "Mean Anomaly(deg)": -285.4403289625151,
        "RAAN(deg)": 299.9915116251646,
        "Satellite Name": "Constellation 1 1324",
        "Satellite Number": 1324,
        "Semi-Major Axis(m)": 7083131.272910544,
        "Time(s)": 150
    },
    {
        "Altitude(m)": 706853.6394010596,
        "Argument of Periapsis(deg)": 0.009052148943056249,
        "Eccentricity": 0.0,
        "Inclination(deg)": 45.0,
        "Latitude(deg)": 43.135351102322986,
        "Longitude(deg)": -91.87403053281065,
        "Mean Anomaly(deg)": -285.37962782226526,
        "RAAN(deg)": 299.991455035999,
        "Satellite Name": "Constellation 1 1324",
        "Satellite Number": 1324,
        "Semi-Major Axis(m)": 7083131.272910544,
        "Time(s)": 151
    }
]